CELTEE 1                
1 41850U 16067C   18308.80738016  .00000721  00000-0  68095-4 0  9993
2 41850  97.9220  38.8356 0010210  62.0316 298.1937 14.96893029108137
OPTICUBE 04             
1 41851U 16067D   18308.85420756  .00000165  00000-0  19759-4 0  9993
2 41851  97.9208  38.7560 0009930  62.3003 297.9224 14.96719729108133
AEROCUBE 8D             
1 41852U 16067E   18309.24038718 -.00000139  00000-0 -68380-5 0  9999
2 41852  97.9222  38.9788 0010668  59.8131 300.4145 14.96577737108174
AEROCUBE 8C             
1 41853U 16067F   18309.19107954  .00000416  00000-0  41925-4 0  9994
2 41853  97.9221  38.8820 0011110  62.2958 297.9388 14.96540991108168
PROMETHEUS 2-1          
1 41854U 16067G   18309.18576277  .00000385  00000-0  39046-4 0  9998
2 41854  97.9226  38.9245 0011263  61.7117 298.5238 14.96687506108161
PROMETHEUS 2-3          
1 41855U 16067H   18309.18851034  .00000464  00000-0  45912-4 0  9993
2 41855  97.9228  38.9353 0011480  62.0882 298.1500 14.96687405108164
ITF-2                   
1 41932U 98067KU  18309.08952087  .00101955  15019-4  31852-3 0  9992
2 41932  51.6270 328.3608 0006571  39.4769 320.6715 15.91402688103078
INS-1B                  
1 41954U 17008G   18308.84011900  .00001014  00000-0  45617-4 0  9995
2 41954  97.4308  11.5311 0008492 210.8393 149.2346 15.23366421 95418
BGUSAT                  
1 41999U 17008BD  18308.92018147  .00001769  00000-0  73413-4 0  9995
2 41999  97.4361  13.1176 0007182 227.3122 132.7511 15.25166108 94873
DIDO-2                  
1 42000U 17008BE  18308.89961585  .00000776  00000-0  35502-4 0  9992
2 42000  97.4325  12.0839 0007316 231.2046 128.8538 15.23472077 94822
PEASSS                  
1 42015U 17008BV  18308.86660953  .00000957  00000-0  42029-4 0  9993
2 42015  97.4326  12.6837 0005097 236.7471 123.3279 15.24333059 95346
AL-FARABI 1             
1 42016U 17008BW  18308.94867548  .00001182  00000-0  50499-4 0  9993
2 42016  97.4335  13.0757 0004997 235.6958 124.3807 15.24829160 95496
NAYIF-1 (EO-88)         
1 42017U 17008BX  18308.87497754  .00001232  00000-0  52507-4 0  9992
2 42017  97.4333  13.0107 0004944 236.5046 123.5720 15.24856229 95507
HAVELSAT                
1 42700U 98067LH  18309.14085582  .00052152  00000-0  25395-3 0  9999
2 42700  51.6292 349.1384 0005301  47.9527 312.1925 15.81837161 84247
CXBN-2                  
1 42704U 98067LM  18309.14188979  .00053578  00000-0  26736-3 0  9990
2 42704  51.6322 350.6975 0004599  20.5428 339.5758 15.81300835 84142
PHOENIX                 
1 42706U 98067LP  18309.15270865  .00029834  00000-0  19067-3 0  9996
2 42706  51.6310 354.5646 0002982  13.2731 346.8347 15.76077834 84081
X-CUBESAT               
1 42707U 98067LQ  18309.15294459  .00067486  00000-0  29619-3 0  9991
2 42707  51.6296 347.6212 0005018  24.8371 335.2872 15.83950201 84168
QBEE50-LTU-OC           
1 42708U 98067LR  18309.22239184  .00056137  00000-0  27748-3 0  9996
2 42708  51.6297 349.7019 0003773  28.1182 332.0023 15.81491874 84102
ALTAIR PATHFINDER       
1 42711U 98067LS  18309.19403713  .00016600  00000-0  14754-3 0  9991
2 42711  51.6361   7.6793 0004302   1.3179 358.7828 15.68661574 83574
SHARC                   
1 42712U 98067LT  18309.20803496  .00036078  00000-0  27392-3 0  9999
2 42712  51.6366   7.8373 0003882   7.0604 353.0448 15.71956608 83816
ZA-AEROSAT              
1 42713U 98067LU  18309.18371085  .00029191  00000-0  19943-3 0  9992
2 42713  51.6352 358.5225 0003555   9.1212 350.9852 15.74549761 83691
CSUNSAT 1               
1 42715U 98067LW  18309.18124842  .00032860  00000-0  21078-3 0  9990
2 42715  51.6348 357.0208 0004857   5.5600 354.5453 15.75932268 83719
SPACECUBE               
1 42717U 98067LY  18309.19813011  .00054014  00000-0  26915-3 0  9996
2 42717  51.6258 350.2128 0004729  43.2603 316.8770 15.81327622 83179
HOOPOE                  
1 42718U 98067LZ  18309.12462938  .00128776  17203-4  41870-3 0  9999
2 42718  51.6260 342.8812 0006465  36.9943 323.1507 15.90491988 83261
NJUST-1                 
1 42722U 98067MB  18309.23624192  .00023153  00000-0  17074-3 0  9993
2 42722  51.6387   1.0151 0005958  41.9307  29.8902 15.72894926 82731
UNSW-ECO                
1 42723U 98067MC  18309.08321415  .00198494  26642-4  48353-3 0  9998
2 42723  51.6369 341.2295 0008407  40.6716 319.4919 15.95763772 82962
LILACSAT-1              
1 42725U 98067ME  18309.21762222  .00038541  00000-0  22194-3 0  9997
2 42725  51.6381 354.7647 0005699  36.1334  73.1694 15.78287038 82729
NSIGHT-1                
1 42726U 98067MF  18309.18956059  .00009641  00000-0  10431-3 0  9997
2 42726  51.6399  15.2692 0005532  40.4787 319.6618 15.64327026 82455
SNUSAT-1                
1 42727U 98067MG  18309.21487959  .00042696  00000-0  24692-3 0  9991
2 42727  51.6331 354.8936 0006834  19.2322 340.8935 15.78133509 82689
I-INSPIRE II            
1 42731U 98067ML  18309.10598143  .00285391  44857-4  57461-3 0  9995
2 42731  51.6311 338.9727 0008810  31.5698 328.5839 15.99092067 82774
POLYITAN-2-SAU          
1 42732U 98067MM  18309.18432175  .00074752  00000-0  33365-3 0  9998
2 42732  51.6313 348.6503 0006957  16.4202 343.7025 15.83538037 82658
SNUSAT-1B               
1 42733U 98067MN  18309.15587756  .00049626  00000-0  26561-3 0  9994
2 42733  51.6303 353.0104 0006913  14.1904 345.9291 15.79784373 82594
EXALTA-1                
1 42734U 98067MP  18309.22202885  .00578983  17572-3  73036-3 0  9997
2 42734  51.6183 335.7788 0009498  42.8402 317.3349 16.06826635 82774
BEEAGLESAT              
1 42736U 98067MR  18309.14610052  .00039902  00000-0  24730-3 0  9994
2 42736  51.6325 356.7348 0006379  34.9820 325.1598 15.76607887 82607
UCLSAT                  
1 42765U 17036A   18309.09940647  .00000998  00000-0  46480-4 0  9993
2 42765  97.3846   6.5731 0010301 307.3035  52.7262 15.22187010 76140
LITUANICASAT-2          
1 42768U 17036D   18308.73154550  .00001523  00000-0  69823-4 0  9997
2 42768  97.3869   5.7673 0013958 296.1058  63.8741 15.21909703 75936
AALTO-1                 
1 42775U 17036L   18309.16198193  .00000562  00000-0  28435-4 0  9990
2 42775  97.3836   5.8637 0012581 293.6691  66.3224 15.20973309 75920
URSA MAIOR              
1 42776U 17036M   18308.94294626  .00000684  00000-0  33849-4 0  9994
2 42776  97.3844   5.7320 0012419 294.6586  65.3356 15.21073388 75892
COMPASS 2               
1 42777U 17036N   18308.90836055  .00001329  00000-0  60902-4 0  9996
2 42777  97.3871   6.3398 0011269 297.7282  62.2811 15.22172650 75912
DIAMOND RED             
1 42783U 17036U   18308.87388708  .00000802  00000-0  38415-4 0  9995
2 42783  97.3846   6.1212 0010939 308.1781  51.8469 15.21741476 75907
PEGASUS                 
1 42784U 17036V   18308.82639250  .00000857  00000-0  40545-4 0  9999
2 42784  97.3849   6.1945 0010843 308.2889  51.7371 15.21978795 75905
DIAMOND GREEN           
1 42785U 17036W   18308.87265277  .00000808  00000-0  38668-4 0  9998
2 42785  97.3848   6.1373 0010843 308.9156  51.1112 15.21740268 75970
DIAMOND BLUE            
1 42786U 17036X   18309.13477460  .00000795  00000-0  38118-4 0  9993
2 42786  97.3847   6.3942 0010671 308.2386  51.7889 15.21743763 75937
NUDTSAT                 
1 42787U 17036Y   18308.94811170  .00001615  00000-0  72208-4 0  9992
2 42787  97.3874   6.6691 0011823 312.0059  48.0196 15.22701992 75784
SUCHAI                  
1 42788U 17036Z   18308.88790753  .00001070  00000-0  49435-4 0  9990
2 42788  97.3851   6.4188 0010441 307.8446  52.1845 15.22302284 75997
SKCUBE                  
1 42789U 17036AA  18308.89186394  .00000995  00000-0  46247-4 0  9995
2 42789  97.3848   6.4025 0010279 307.8604  52.1702 15.22240536 75914
VZLUSAT-1               
1 42790U 17036AB  18308.87021083  .00001325  00000-0  59774-4 0  9995
2 42790  97.3856   6.5969 0009900 307.8589  52.1751 15.22708406 75924
ROBUSTA-1B              
1 42792U 17036AD  18308.91232943  .00001008  00000-0  46608-4 0  9991
2 42792  97.3848   6.5152 0009872 309.0669  50.9688 15.22398843 75938
CICERO 6                
1 42793U 17036AE  18308.79393950  .00000775  00000-0  36798-4 0  9993
2 42793  97.3837   6.3356 0009125 311.7611  48.2845 15.22155470 75986
D-SAT                   
1 42794U 17036AF  18308.91720670  .00000136  00000-0  17299-4 0  9997
2 42794  97.5742 358.1284 0127136 173.1582 187.1412 14.90958262 74696
TOKI                    
1 42820U 98067MU  18308.60941558  .00030231  00000-0  19929-3 0  9996
2 42820  51.6342   2.9233 0004049 359.0302   1.0689 15.75354371 75936
MAZAALAI (NUMSAT-1)     
1 42822U 98067MW  18308.61317593  .00029866  00000-0  20153-3 0  9998
2 42822  51.6342   3.7129 0004148   0.1475 359.9525 15.74822084 75929
BRAC ONNESHA            
1 42823U 98067MX  18308.59494871  .00028806  00000-0  19249-3 0  9998
2 42823  51.6343   3.6182 0005998   8.4956 351.6144 15.75057536 75927
NIGERIAEDUSAT-1         
1 42824U 98067MY  18308.51792531  .00029752  00000-0  20228-3 0  9995
2 42824  51.6348   4.6282 0005862   7.6009 352.5078 15.74638907 75905
CORVUS BC2              
1 42846U 17042X   18309.19296558  .00000270  00000-0  32042-4 0  9998
2 42846  97.5836 206.8653 0011178  86.9827 273.2672 14.91877906 71393
CORVUS BC1              
1 42847U 17042Y   18308.75888140  .00000045  00000-0  96983-5 0  9999
2 42847  97.5835 206.5180 0010826  87.8442 272.4017 14.91977541 71320
SILU-1 (SILKROAD 1)     
1 42903U 17021F   18309.04567115  .00038145  00000-0  19860-3 0  9997
2 42903  42.7747 190.4192 0015928 225.8628 269.7543 15.80035486 72145
MIRATA                  
1 43015U 17073C   18308.74323148  .00000557  00000-0  49204-4 0  9993
2 43015  97.7095 233.9121 0257105 173.5266 186.9377 14.78457525 51907
MAKERSAT 0              
1 43016U 17073D   18308.79903841  .00000357  00000-0  33413-4 0  9996
2 43016  97.7126 234.1279 0258861 173.4481 187.0227 14.78368548 51900
